ONEWEB-0634             
1 56075U 23043AF  25059.31173423  .00000026  00000+0  36168-4 0  9995
2 56075  87.9140 353.6068 0001929  67.7263 292.4072 13.15551140 94091
ONEWEB-0635             
1 56076U 23043AG  25059.23093890 -.00000041  00000+0 -14374-3 0  9999
2 56076  87.9112 353.6384 0001737  90.7041 269.4289 13.15548058 94110
ONEWEB-0636             
1 56077U 23043AH  25059.37512023 -.00000090  00000+0 -27312-3 0  9999
2 56077  87.9125 353.6094 0001752  87.4898 272.6433 13.15550264 94112
ONEWEB-0637             
1 56078U 23043AJ  25059.36877979 -.00000157  00000+0 -44973-3 0  9999
2 56078  87.9143 353.5945 0001495  80.4069 279.7231 13.15547196 94130
ONEWEB-0647             
1 56079U 23043AK  25059.36403088  .00000045  00000+0  84243-4 0  9995
2 56079  87.9137 353.6080 0001897  84.9833 275.1514 13.15551170 94129
ONEWEB-0651             
1 56080U 23043AL  25059.35928218  .00000093  00000+0  21384-3 0  9992
2 56080  87.9138 353.5937 0001562  86.3008 273.8301 13.15548965 95321
ONEWEB-0718             
1 56081U 23043AM  25059.35452113  .00000163  00000+0  39884-3 0  9991
2 56081  87.9138 353.5789 0001804  63.0213 297.1102 13.15551798 94130
ONEWEB-0561             
1 56710U 23068A   25059.41481816  .00000086  00000+0  17858-3 0  9997
2 56710  87.9306   8.7518 0001927  99.6151 260.5200 13.20771694 86967
